NORAD_CAT_ID,OBJECT_NAME,OBJECT_TYPE,EPOCH,MEAN_MOTION,ECCENTRICITY,INCLINATION,RA_OF_ASC_NODE,ARG_OF_PERICENTER,MEAN_ANOMALY,BSTAR,MEAN_MOTION_DOT,MEAN_MOTION_DDOT,TLE_LINE0,TLE_LINE1,TLE_LINE2,SEMIMAJOR_AXIS,PERIOD,APOGEE,PERIGEE,DECAYED
52541.0,STARLINK-3845,PAYLOAD,2024-07-18 13:51:26,15.08841428,0.000127,53.217,303.6386,79.3267,280.7868,0.00013849,1.917e-05,0.0,0 STARLINK-3845,1 52541U 22051J   24200.57738613  .00001917  00000-0  13849-3 0  9991,2 52541  53.2170 303.6386 0001270  79.3267 280.7868 15.08841428120924,6917.876,95.437,540.62,538.862,0.0
52541.0,STARLINK-3845,PAYLOAD,2024-07-19 12:06:50,15.0883436,0.0001343,53.2177,299.4781,102.1039,258.0104,0.00013097,1.797e-05,0.0,0 STARLINK-3845,1 52541U 22051J   24201.50474968  .00001797  00000-0  13097-3 0  9996,2 52541  53.2177 299.4781 0001343 102.1039 258.0104 15.08834360121137,6917.898,95.438,540.692,538.834,0.0
52541.0,STARLINK-3845,PAYLOAD,2024-07-20 13:33:00,15.08834281,0.0001228,53.2174,294.7233,100.063,260.0501,8.613e-05,1.083e-05,0.0,0 STARLINK-3845,1 52541U 22051J   24202.56459184  .00001083  00000-0  86130-4 0  9993,2 52541  53.2174 294.7233 0001228 100.0630 260.0501 15.08834281121293,6917.898,95.438,540.612,538.913,0.0
52541.0,STARLINK-3845,PAYLOAD,2024-07-20 23:05:18,15.08851037,0.0001038,53.2162,292.9369,95.8371,264.274,0.00015973,2.256e-05,0.0,0 STARLINK-3845,1 52541U 22051J   24202.96202028  .00002256  00000-0  15973-3 0  9999,2 52541  53.2162 292.9369 0001038  95.8371 264.2740 15.08851037121358,6917.847,95.437,540.43,538.994,0.0
52541.0,STARLINK-3845,PAYLOAD,2024-07-21 13:23:47,15.08842525,0.0001,53.2166,290.2609,93.3818,266.7289,0.00014496,2.02e-05,0.0,0 STARLINK-3845,1 52541U 22051J   24203.55818914  .00002020  00000-0  14496-3 0  9990,2 52541  53.2166 290.2609 0001000  93.3818 266.7289 15.08842525121445,6917.873,95.437,540.429,539.046,0.0
52541.0,STARLINK-3845,PAYLOAD,2024-07-22 05:17:39,15.08837822,0.0001132,53.2172,287.2878,85.9454,274.1667,9.2505e-05,1.185e-05,0.0,0 STARLINK-3845,1 52541U 22051J   24204.22059476  .00001185  00000-0  92505-4 0  9994,2 52541  53.2172 287.2878 0001132  85.9454 274.1667 15.08837822121543,6917.887,95.438,540.535,538.969,0.0
52541.0,STARLINK-3845,PAYLOAD,2024-07-22 10:03:48,15.08838426,0.0001133,53.2172,286.3957,85.9501,274.1621,9.0272e-05,1.149e-05,0.0,0 STARLINK-3845,1 52541U 22051J   24204.41931465  .00001149  00000-0  90272-4 0  9991,2 52541  53.2172 286.3957 0001133  85.9501 274.1621 15.08838426121502,6917.885,95.438,540.534,538.966,0.0
52541.0,STARLINK-3845,PAYLOAD,2024-07-23 11:29:59,15.08824887,0.0001255,53.2169,281.6363,88.4493,271.6643,0.00048615,7.454e-05,0.0,0 STARLINK-3845,1 52541U 22051J   24205.47915754  .00007454  00000-0  48615-3 0  9999,2 52541  53.2169 281.6363 0001255  88.4493 271.6643 15.08824887121737,6917.927,95.439,540.66,538.923,0.0
52541.0,STARLINK-3845,PAYLOAD,2024-07-23 14:40:44,15.08847673,0.0001212,53.2169,281.0416,81.0242,279.0887,0.00012583,1.716e-05,0.0,0 STARLINK-3845,1 52541U 22051J   24205.61162670  .00001716  00000-0  12583-3 0  9996,2 52541  53.2169 281.0416 0001212  81.0242 279.0887 15.08847673121688,6917.857,95.437,540.56,538.883,0.0
52541.0,STARLINK-3845,PAYLOAD,2024-07-24 04:59:13,15.08841165,0.0001521,53.2165,278.3639,95.1784,264.9382,1.7088e-05,-1.6e-07,0.0,0 STARLINK-3845,1 52541U 22051J   24206.20779323 -.00000016  00000-0  17088-4 0  9990,2 52541  53.2165 278.3639 0001521  95.1784 264.9382 15.08841165121841,6917.877,95.437,540.794,538.69,0.0
52541.0,STARLINK-3845,PAYLOAD,2024-07-24 14:31:32,15.08837195,0.0001372,53.2161,276.5796,90.6062,269.5087,-2.8785e-05,-7.46e-06,0.0,0 STARLINK-3845,1 52541U 22051J   24206.60523628 -.00000746  00000-0 -28785-4 0  9996,2 52541  53.2161 276.5796 0001372  90.6062 269.5087 15.08837195121834,6917.889,95.438,540.703,538.805,0.0
52541.0,STARLINK-3845,PAYLOAD,2024-07-25 04:50:00,15.08840067,0.0001369,53.216,273.9037,89.4667,270.6482,4.351e-05,4.05e-06,0.0,0 STARLINK-3845,1 52541U 22051J   24207.20139174  .00000405  00000-0  43510-4 0  9995,2 52541  53.2160 273.9037 0001369  89.4667 270.6482 15.08840067121929,6917.88,95.438,540.692,538.798,0.0
52541.0,STARLINK-3845,PAYLOAD,2024-07-25 09:36:09,15.08841296,0.0001343,53.2164,273.0116,89.2151,270.8995,4.648e-05,4.52e-06,0.0,0 STARLINK-3845,1 52541U 22051J   24207.40011077  .00000452  00000-0  46480-4 0  9999,2 52541  53.2164 273.0116 0001343  89.2151 270.8995 15.08841296122028,6917.876,95.437,540.67,538.812,0.0
52541.0,STARLINK-3845,PAYLOAD,2024-07-25 14:22:19,15.0884096,0.0001357,53.2164,272.1197,89.2111,270.9037,4.2555e-05,3.89e-06,0.0,0 STARLINK-3845,1 52541U 22051J   24207.59883102  .00000389  00000-0  42555-4 0  9993,2 52541  53.2164 272.1197 0001357  89.2111 270.9037 15.08840960121987,6917.877,95.437,540.681,538.804,0.0
52541.0,STARLINK-3845,PAYLOAD,2024-07-26 12:37:42,15.08837878,0.0001251,53.216,267.9566,86.7812,273.3324,9.6164e-05,1.243e-05,0.0,0 STARLINK-3845,1 52541U 22051J   24208.52619126  .00001243  00000-0  96164-4 0  9995,2 52541  53.2160 267.9566 0001251  86.7812 273.3324 15.08837878122125,6917.887,95.438,540.617,538.886,0.0
52541.0,STARLINK-3845,PAYLOAD,2024-07-26 20:34:37,15.08850081,0.0001311,53.2162,266.4706,88.4552,271.659,0.00016647,2.363e-05,0.0,0 STARLINK-3845,1 52541U 22051J   24208.85738043  .00002363  00000-0  16647-3 0  9992,2 52541  53.2162 266.4706 0001311  88.4552 271.6590 15.08850081122244,6917.85,95.437,540.622,538.808,0.0
52541.0,STARLINK-3845,PAYLOAD,2024-07-27 09:17:44,15.08828202,0.0001337,53.2155,264.0916,81.7054,278.4089,-6.3519e-05,-1.298e-05,0.0,0 STARLINK-3845,1 52541U 22051J   24209.38732299 -.00001298  00000-0 -63519-4 0  9997,2 52541  53.2155 264.0916 0001337  81.7054 278.4089 15.08828202122321,6917.916,95.438,540.706,538.857,0.0
52541.0,STARLINK-3845,PAYLOAD,2024-07-28 12:19:16,15.08843953,0.0001402,53.2157,259.0387,94.1337,265.9815,9.7077e-05,1.258e-05,0.0,0 STARLINK-3845,1 52541U 22051J   24210.51339119  .00001258  00000-0  97077-4 0  9998,2 52541  53.2157 259.0387 0001402  94.1337 265.9815 15.08843953122490,6917.868,95.437,540.703,538.763,0.0
52541.0,STARLINK-3845,PAYLOAD,2024-07-28 13:54:40,15.08845035,0.0001346,53.2156,258.7399,88.3389,271.7758,0.00010576,1.396e-05,0.0,0 STARLINK-3845,1 52541U 22051J   24210.57963061  .00001396  00000-0  10576-3 0  9994,2 52541  53.2156 258.7399 0001346  88.3389 271.7758 15.08845035122435,6917.865,95.437,540.661,538.799,0.0
52541.0,STARLINK-3845,PAYLOAD,2024-07-29 12:10:04,15.08838764,0.0001498,53.2164,254.575,90.2559,269.8605,0.00012295,1.669e-05,0.0,0 STARLINK-3845,1 52541U 22051J   24211.50699715  .00001669  00000-0  12295-3 0  9993,2 52541  53.2164 254.5750 0001498  90.2559 269.8605 15.08838764122641,6917.884,95.438,540.785,538.713,0.0
52541.0,STARLINK-3845,PAYLOAD,2024-07-29 20:06:59,15.08843803,0.0001606,53.217,253.0881,86.2693,273.8483,0.00013939,1.931e-05,0.0,0 STARLINK-3845,1 52541U 22051J   24211.83819419  .00001931  00000-0  13939-3 0  9992,2 52541  53.2170 253.0881 0001606  86.2693 273.8483 15.08843803122629,6917.869,95.437,540.845,538.623,0.0
52541.0,STARLINK-3845,PAYLOAD,2024-07-30 12:00:51,15.08846701,0.000145,53.216,250.114,92.2621,267.8537,7.4005e-05,8.9e-06,0.0,0 STARLINK-3845,1 52541U 22051J   24212.50059220  .00000890  00000-0  74005-4 0  9998,2 52541  53.2160 250.1140 0001450  92.2621 267.8537 15.08846701122723,6917.86,95.437,540.728,538.722,0.0
52541.0,STARLINK-3845,PAYLOAD,2024-07-30 19:57:46,15.08848078,0.0001462,53.2163,248.6272,93.915,266.2009,0.00011055,1.472e-05,0.0,0 STARLINK-3845,1 52541U 22051J   24212.83178972  .00001472  00000-0  11055-3 0  9992,2 52541  53.2163 248.6272 0001462  93.9150 266.2009 15.08848078122841,6917.856,95.437,540.732,538.709,0.0
52541.0,STARLINK-3845,PAYLOAD,2024-07-31 08:40:52,15.08839106,0.0001713,53.2178,246.248,97.1326,262.986,3.5139e-05,2.71e-06,0.0,0 STARLINK-3845,1 52541U 22051J   24213.36171842  .00000271  00000-0  35139-4 0  9996,2 52541  53.2178 246.2480 0001713  97.1326 262.9860 15.08839106122853,6917.883,95.438,540.933,538.563,0.0
52541.0,STARLINK-3845,PAYLOAD,2024-08-01 08:31:39,15.08824895,0.0001703,53.2178,241.7881,108.8342,251.2835,0.00039959,6.075e-05,0.0,0 STARLINK-3845,1 52541U 22051J   24214.35531546  .00006075  00000-0  39959-3 0  9998,2 52541  53.2178 241.7881 0001703 108.8342 251.2835 15.08824895123005,6917.927,95.439,540.97,538.613,0.0
52541.0,STARLINK-3845,PAYLOAD,2024-08-02 05:11:39,15.08839632,0.0001594,53.2166,237.9223,100.8476,259.2696,0.00012413,1.688e-05,0.0,0 STARLINK-3845,1 52541U 22051J   24215.21643454  .00001688  00000-0  12413-3 0  9997,2 52541  53.2166 237.9223 0001594 100.8476 259.2696 15.08839632123207,6917.882,95.438,540.849,538.644,0.0
52541.0,STARLINK-3845,PAYLOAD,2024-08-02 11:33:12,15.08839037,0.0001378,53.2156,236.7351,88.0554,272.0596,7.4481e-05,8.98e-06,0.0,0 STARLINK-3845,1 52541U 22051J   24215.48139748  .00000898  00000-0  74481-4 0  9998,2 52541  53.2156 236.7351 0001378  88.0554 272.0596 15.08839037123176,6917.883,95.438,540.702,538.795,0.0
52541.0,STARLINK-3845,PAYLOAD,2024-08-03 05:02:27,15.08840546,0.0001366,53.2157,233.4622,83.8097,276.3051,-1.2761e-05,-4.91e-06,0.0,0 STARLINK-3845,1 52541U 22051J   24216.21003852 -.00000491  00000-0 -12761-4 0  9990,2 52541  53.2157 233.4622 0001366  83.8097 276.3051 15.08840546123354,6917.879,95.438,540.689,538.799,0.0
52541.0,STARLINK-3845,PAYLOAD,2024-08-03 08:13:13,15.08841025,0.0001357,53.2158,232.8679,83.5668,276.5479,-1.472e-05,-5.22e-06,0.0,0 STARLINK-3845,1 52541U 22051J   24216.34251784 -.00000522  00000-0 -14720-4 0  9995,2 52541  53.2158 232.8679 0001357  83.5668 276.5479 15.08841025123305,6917.877,95.437,540.681,538.804,0.0
52541.0,STARLINK-3845,PAYLOAD,2024-08-03 17:45:32,15.08842879,0.0001321,53.2158,231.0834,82.3285,277.7857,3.8901e-05,3.31e-06,0.0,0 STARLINK-3845,1 52541U 22051J   24216.73995453  .00000331  00000-0  38901-4 0  9999,2 52541  53.2158 231.0834 0001321  82.3285 277.7857 15.08842879123369,6917.872,95.437,540.65,538.823,0.0
